{
    "links": {
        "self": "http://www.neowsapp.com/rest/v1/neo/3582083?api_key=iIulBulltgU6a56xZRHN4H3l9WmuAYTsLGpBGhQ2"
    },
    "id": "3582083",
    "neo_reference_id": "3582083",
    "name": "(2011 UE10)",
    "designation": "2011 UE10",
    "nasa_jpl_url": "http://ssd.jpl.nasa.gov/sbdb.cgi?sstr=3582083",
    "absolute_magnitude_h": 26.0,
    "estimated_diameter": {
        "kilometers": {
            "estimated_diameter_min": 0.0167708462,
            "estimated_diameter_max": 0.0375007522
        },
        "meters": {
            "estimated_diameter_min": 16.7708462163,
            "estimated_diameter_max": 37.5007521798
        },
        "miles": {
            "estimated_diameter_min": 0.0104209175,
            "estimated_diameter_max": 0.0233018799
        },
        "feet": {
            "estimated_diameter_min": 55.0224631002,
            "estimated_diameter_max": 123.0339677816
        }
    },
    "is_potentially_hazardous_asteroid": false,
    "close_approach_data": [
        {
            "close_approach_date": "1907-08-20",
            "close_approach_date_full": "1907-Aug-20 07:28",
            "epoch_date_close_approach": -1968165120000,
            "relative_velocity": {
                "kilometers_per_second": "19.5294252956",
                "kilometers_per_hour": "70305.9310641499",
                "miles_per_hour": "43685.3714437214"
            },
            "miss_distance": {
                "astronomical": "0.4963524728",
                "lunar": "193.0811119192",
                "kilometers": "74253272.700112936",
                "miles": "46138844.1692170768"
            },
            "orbiting_body": "Earth"
        },
        {
            "close_approach_date": "2011-10-24",
            "close_approach_date_full": "2011-Oct-24 14:52",
            "epoch_date_close_approach": 1319467920000,
            "relative_velocity": {
                "kilometers_per_second": "5.2038799641",
                "kilometers_per_hour": "18733.9678707938",
                "miles_per_hour": "11640.5590917163"
            },
            "miss_distance": {
                "astronomical": "0.0323327411",
                "lunar": "12.5774362879",
                "kilometers": "4836909.199821457",
                "miles": "3005516.0091398266"
            },
            "orbiting_body": "Earth"
        }
    ],
    "orbital_data": {
        "orbit_id": "4",
        "orbit_determination_date": "2017-04-06 08:52:27",
        "first_observation_date": "2011-10-18",
        "last_observation_date": "2011-10-19",
        "data_arc_in_days": 1,
        "observations_used": 16,
        "orbit_uncertainty": "9",
        "minimum_orbit_intersection": ".027431",
        "jupiter_tisserand_invariant": "4.188",
        "epoch_osculation": "2455853.5",
        "eccentricity": ".3809170634374903",
        "semi_major_axis": "1.653188636917058",
        "inclination": "3.563096539465359",
        "ascending_node_longitude": "202.79322528",
        "orbital_period": "776.3937741614096",
        "perihelion_distance": "1.023460876034385",
        "perihelion_argument": "184.5517129686208",
        "aphelion_distance": "2.282916397799732",
        "perihelion_time": "2455856.722741411533",
        "mean_anomaly": "358.5056720613132",
        "mean_motion": ".4636822344290943",
        "equinox": "J2000",
        "orbit_class": {
            "orbit_class_type": "AMO",
            "orbit_class_description": "Near-Earth asteroid orbits similar to that of 1221 Amor",
            "orbit_class_range": "1.017 AU < q (perihelion) < 1.3 AU"
        }
    },
    "is_sentry_object": false
}